{
  "norad_id": 56776,
  "name": "STARLINK-6274",
  "history": [
    {
      "epoch": "2026-03-28T21:08:11.398272",
      "apogee_km": 574.0046710599809,
      "perigee_km": 570.0917167957987,
      "latitude_deg": 31.553956117858043,
      "longitude_deg": -57.85400191997178,
      "semi_major_axis_km": 6950.1851939278895,
      "eccentricity": 0.0002815,
      "inclination_deg": 69.9983,
      "raan_deg": 276.2482,
      "arg_perigee_deg": 270.4562,
      "mean_anomaly_deg": 89.6274,
      "mean_motion_rev_day": 14.98332489
    }
  ]
}